STARLINK-11092 [DTC]    
1 59710U 24088C   26041.15146047  .00000388  00000+0  80608-5 0  9990
2 59710  53.1591 102.2812 0001310  74.5392 285.5770 15.69708612101943
STARLINK-11082 [DTC]    
1 59711U 24088D   26041.14655501  .00000083  00000+0  55537-5 0  9995
2 59711  53.1581 102.2472 0001593  61.9410 298.1769 15.69708017101946
STARLINK-11108 [DTC]    
1 59712U 24088E   26041.14164970 -.00001830  00000+0 -10252-4 0  9998
2 59712  53.1590 102.2073 0001268 156.8802 203.2273 15.69703838101945
STARLINK-11100 [DTC]    
1 59713U 24088F   26040.43637877 -.00002442  00000+0 -15294-4 0  9992
2 59713  53.1587 105.6280 0001152  96.1201 263.9949 15.69717611101835
STARLINK-11094 [DTC]    
1 59714U 24088G   26040.49514321  .00002203  00000+0  23039-4 0  9996
2 59714  53.1571 105.2921 0001176  71.6553 288.4592 15.69710440101841
STARLINK-11101 [DTC]    
1 59715U 24088H   26041.18569610 -.00000048  00000+0  44629-5 0  9990
2 59715  53.1580 101.7637 0001159  91.1267 268.9883 15.69707178101959
STARLINK-11099 [DTC]    
1 59716U 24088J   26041.19060289 -.00000582  00000+0  49891-7 0  9991
2 59716  53.1586 101.7983 0001039  81.0672 279.0464 15.69705471101957
STARLINK-11084 [DTC]    
1 59717U 24088K   26041.18079126 -.00000009  00000+0  47881-5 0  9990
2 59717  53.1575 101.7298 0001100  92.6536 267.4608 15.69703831101950
STARLINK-11103 [DTC]    
1 59718U 24088L   26040.66650745 -.00002739  00000+0 -17723-4 0  9999
2 59718  53.1594 104.2089 0001347  61.6830 298.4324 15.69748041101876
STARLINK-11096 [DTC]    
1 59719U 24088M   26040.46090005 -.00003070  00000+0 -20479-4 0  9996
2 59719  53.1590 105.7896 0001195  87.2243 272.8912 15.69720486101836
STARLINK-11095 [DTC]    
1 59720U 24088N   26041.17097472 -.00004394  00000+0 -31401-4 0  9999
2 59720  53.1582 101.6589 0001624 125.9671 234.1497 15.69726947101955
STARLINK-31834          
1 59721U 24088P   26040.89265064  .00000604  00000+0  32535-4 0  9999
2 59721  53.1586 269.2111 0001379  81.6839 278.4318 15.30188968 99607
STARLINK-31843          
1 59722U 24088Q   26041.03383098  .00001878  00000+0  75524-4 0  9994
2 59722  53.1583 268.6706 0001292 104.3253 255.7892 15.30193755 99442
STARLINK-31766          
1 59723U 24088R   26041.01272963  .00001107  00000+0  49534-4 0  9998
2 59723  53.1601 268.5402 0001622  76.3971 283.7210 15.30187672 99444
STARLINK-31836          
1 59724U 24088S   26040.95161791  .00002842  00000+0  10803-3 0  9990
2 59724  53.1598 268.8714 0001402  74.0502 286.0654 15.30206574 99430
STARLINK-31820          
1 59725U 24088T   26041.02644410  .00002435  00000+0  94315-4 0  9993
2 59725  53.1594 268.6265 0001411  98.1466 261.9695 15.30196797 99445
