[{"OBJECT_NAME":"STARLINK-11092 [DTC]","OBJECT_ID":"2024-088C","EPOCH":"2026-02-10T03:38:06.184608","MEAN_MOTION":15.69708612,"ECCENTRICITY":0.000131,"INCLINATION":53.1591,"RA_OF_ASC_NODE":102.2812,"ARG_OF_PERICENTER":74.5392,"MEAN_ANOMALY":285.577,"EPHEMERIS_TYPE":0,"CLASSIFICATION_TYPE":"U","NORAD_CAT_ID":59710,"ELEMENT_SET_NO":999,"REV_AT_EPOCH":10194,"BSTAR":8.0608e-6,"MEAN_MOTION_DOT":3.88e-6,"MEAN_MOTION_DDOT":0},{"OBJECT_NAME":"STARLINK-11082 [DTC]","OBJECT_ID":"2024-088D","EPOCH":"2026-02-10T03:31:02.352864","MEAN_MOTION":15.69708017,"ECCENTRICITY":0.0001593,"INCLINATION":53.1581,"RA_OF_ASC_NODE":102.2472,"ARG_OF_PERICENTER":61.941,"MEAN_ANOMALY":298.1769,"EPHEMERIS_TYPE":0,"CLASSIFICATION_TYPE":"U","NORAD_CAT_ID":59711,"ELEMENT_SET_NO":999,"REV_AT_EPOCH":10194,"BSTAR":5.5537e-6,"MEAN_MOTION_DOT":8.3e-7,"MEAN_MOTION_DDOT":0},{"OBJECT_NAME":"STARLINK-11108 [DTC]","OBJECT_ID":"2024-088E","EPOCH":"2026-02-10T03:23:58.534080","MEAN_MOTION":15.69703838,"ECCENTRICITY":0.0001268,"INCLINATION":53.159,"RA_OF_ASC_NODE":102.2073,"ARG_OF_PERICENTER":156.8802,"MEAN_ANOMALY":203.2273,"EPHEMERIS_TYPE":0,"CLASSIFICATION_TYPE":"U","NORAD_CAT_ID":59712,"ELEMENT_SET_NO":999,"REV_AT_EPOCH":10194,"BSTAR":-1.0252e-5,"MEAN_MOTION_DOT":-1.83e-5,"MEAN_MOTION_DDOT":0},{"OBJECT_NAME":"STARLINK-11100 [DTC]","OBJECT_ID":"2024-088F","EPOCH":"2026-02-09T10:28:23.125728","MEAN_MOTION":15.69717611,"ECCENTRICITY":0.00011521,"INCLINATION":53.1587,"RA_OF_ASC_NODE":105.628,"ARG_OF_PERICENTER":96.1201,"MEAN_ANOMALY":263.9949,"EPHEMERIS_TYPE":0,"CLASSIFICATION_TYPE":"U","NORAD_CAT_ID":59713,"ELEMENT_SET_NO":999,"REV_AT_EPOCH":10183,"BSTAR":-1.5294384e-5,"MEAN_MOTION_DOT":-2.442e-5,"MEAN_MOTION_DDOT":0},{"OBJECT_NAME":"STARLINK-11094 [DTC]","OBJECT_ID":"2024-088G","EPOCH":"2026-02-09T11:53:00.373344","MEAN_MOTION":15.6971044,"ECCENTRICITY":0.0001176,"INCLINATION":53.1571,"RA_OF_ASC_NODE":105.2921,"ARG_OF_PERICENTER":71.6553,"MEAN_ANOMALY":288.4592,"EPHEMERIS_TYPE":0,"CLASSIFICATION_TYPE":"U","NORAD_CAT_ID":59714,"ELEMENT_SET_NO":999,"REV_AT_EPOCH":10184,"BSTAR":2.3039e-5,"MEAN_MOTION_DOT":2.203e-5,"MEAN_MOTION_DDOT":0},{"OBJECT_NAME":"STARLINK-11101 [DTC]","OBJECT_ID":"2024-088H","EPOCH":"2026-02-10T04:27:24.143040","MEAN_MOTION":15.69707178,"ECCENTRICITY":0.0001159,"INCLINATION":53.158,"RA_OF_ASC_NODE":101.7637,"ARG_OF_PERICENTER":91.1267,"MEAN_ANOMALY":268.9883,"EPHEMERIS_TYPE":0,"CLASSIFICATION_TYPE":"U","NORAD_CAT_ID":59715,"ELEMENT_SET_NO":999,"REV_AT_EPOCH":10195,"BSTAR":4.4629e-6,"MEAN_MOTION_DOT":-4.8e-7,"MEAN_MOTION_DDOT":0},{"OBJECT_NAME":"STARLINK-11099 [DTC]","OBJECT_ID":"2024-088J","EPOCH":"2026-02-10T04:34:28.089696","MEAN_MOTION":15.69705471,"ECCENTRICITY":0.0001039,"INCLINATION":53.1586,"RA_OF_ASC_NODE":101.7983,"ARG_OF_PERICENTER":81.0672,"MEAN_ANOMALY":279.0464,"EPHEMERIS_TYPE":0,"CLASSIFICATION_TYPE":"U","NORAD_CAT_ID":59716,"ELEMENT_SET_NO":999,"REV_AT_EPOCH":10195,"BSTAR":4.9891e-8,"MEAN_MOTION_DOT":-5.82e-6,"MEAN_MOTION_DDOT":0},{"OBJECT_NAME":"STARLINK-11084 [DTC]","OBJECT_ID":"2024-088K","EPOCH":"2026-02-10T04:20:20.364864","MEAN_MOTION":15.69703831,"ECCENTRICITY":0.00011,"INCLINATION":53.1575,"RA_OF_ASC_NODE":101.7298,"ARG_OF_PERICENTER":92.6536,"MEAN_ANOMALY":267.4608,"EPHEMERIS_TYPE":0,"CLASSIFICATION_TYPE":"U","NORAD_CAT_ID":59717,"ELEMENT_SET_NO":999,"REV_AT_EPOCH":10195,"BSTAR":4.7881e-6,"MEAN_MOTION_DOT":-9.0e-8,"MEAN_MOTION_DDOT":0},{"OBJECT_NAME":"STARLINK-11103 [DTC]","OBJECT_ID":"2024-088L","EPOCH":"2026-02-09T15:59:46.243680","MEAN_MOTION":15.69748041,"ECCENTRICITY":0.00013474,"INCLINATION":53.1594,"RA_OF_ASC_NODE":104.2089,"ARG_OF_PERICENTER":61.683,"MEAN_ANOMALY":298.4324,"EPHEMERIS_TYPE":0,"CLASSIFICATION_TYPE":"U","NORAD_CAT_ID":59718,"ELEMENT_SET_NO":999,"REV_AT_EPOCH":10187,"BSTAR":-1.7723314e-5,"MEAN_MOTION_DOT":-2.739e-5,"MEAN_MOTION_DDOT":0},{"OBJECT_NAME":"STARLINK-11096 [DTC]","OBJECT_ID":"2024-088M","EPOCH":"2026-02-09T11:03:41.764320","MEAN_MOTION":15.69720486,"ECCENTRICITY":0.00011958,"INCLINATION":53.159,"RA_OF_ASC_NODE":105.7896,"ARG_OF_PERICENTER":87.2243,"MEAN_ANOMALY":272.8912,"EPHEMERIS_TYPE":0,"CLASSIFICATION_TYPE":"U","NORAD_CAT_ID":59719,"ELEMENT_SET_NO":999,"REV_AT_EPOCH":10183,"BSTAR":-2.047851e-5,"MEAN_MOTION_DOT":-3.07e-5,"MEAN_MOTION_DDOT":0},{"OBJECT_NAME":"STARLINK-11095 [DTC]","OBJECT_ID":"2024-088N","EPOCH":"2026-02-10T04:06:12.215808","MEAN_MOTION":15.69726947,"ECCENTRICITY":0.0001624,"INCLINATION":53.1582,"RA_OF_ASC_NODE":101.6589,"ARG_OF_PERICENTER":125.9671,"MEAN_ANOMALY":234.1497,"EPHEMERIS_TYPE":0,"CLASSIFICATION_TYPE":"U","NORAD_CAT_ID":59720,"ELEMENT_SET_NO":999,"REV_AT_EPOCH":10195,"BSTAR":-3.1401e-5,"MEAN_MOTION_DOT":-4.394e-5,"MEAN_MOTION_DDOT":0},{"OBJECT_NAME":"STARLINK-31834","OBJECT_ID":"2024-088P","EPOCH":"2026-02-09T21:25:25.015296","MEAN_MOTION":15.30188968,"ECCENTRICITY":0.0001379,"INCLINATION":53.1586,"RA_OF_ASC_NODE":269.2111,"ARG_OF_PERICENTER":81.6839,"MEAN_ANOMALY":278.4318,"EPHEMERIS_TYPE":0,"CLASSIFICATION_TYPE":"U","NORAD_CAT_ID":59721,"ELEMENT_SET_NO":999,"REV_AT_EPOCH":9960,"BSTAR":3.2535e-5,"MEAN_MOTION_DOT":6.04e-6,"MEAN_MOTION_DDOT":0},{"OBJECT_NAME":"STARLINK-31843","OBJECT_ID":"2024-088Q","EPOCH":"2026-02-10T00:48:42.996672","MEAN_MOTION":15.30193755,"ECCENTRICITY":0.0001292,"INCLINATION":53.1583,"RA_OF_ASC_NODE":268.6706,"ARG_OF_PERICENTER":104.3253,"MEAN_ANOMALY":255.7892,"EPHEMERIS_TYPE":0,"CLASSIFICATION_TYPE":"U","NORAD_CAT_ID":59722,"ELEMENT_SET_NO":999,"REV_AT_EPOCH":9944,"BSTAR":7.5524e-5,"MEAN_MOTION_DOT":1.878e-5,"MEAN_MOTION_DDOT":0},{"OBJECT_NAME":"STARLINK-31766","OBJECT_ID":"2024-088R","EPOCH":"2026-02-10T00:18:19.840032","MEAN_MOTION":15.30187672,"ECCENTRICITY":0.0001622,"INCLINATION":53.1601,"RA_OF_ASC_NODE":268.5402,"ARG_OF_PERICENTER":76.3971,"MEAN_ANOMALY":283.721,"EPHEMERIS_TYPE":0,"CLASSIFICATION_TYPE":"U","NORAD_CAT_ID":59723,"ELEMENT_SET_NO":999,"REV_AT_EPOCH":9944,"BSTAR":4.9534e-5,"MEAN_MOTION_DOT":1.107e-5,"MEAN_MOTION_DDOT":0},{"OBJECT_NAME":"STARLINK-31836","OBJECT_ID":"2024-088S","EPOCH":"2026-02-09T22:50:19.787424","MEAN_MOTION":15.30206574,"ECCENTRICITY":0.0001402,"INCLINATION":53.1598,"RA_OF_ASC_NODE":268.8714,"ARG_OF_PERICENTER":74.0502,"MEAN_ANOMALY":286.0654,"EPHEMERIS_TYPE":0,"CLASSIFICATION_TYPE":"U","NORAD_CAT_ID":59724,"ELEMENT_SET_NO":999,"REV_AT_EPOCH":9943,"BSTAR":0.00010803,"MEAN_MOTION_DOT":2.842e-5,"MEAN_MOTION_DDOT":0},{"OBJECT_NAME":"STARLINK-31820","OBJECT_ID":"2024-088T","EPOCH":"2026-02-10T00:38:04.770240","MEAN_MOTION":15.30196797,"ECCENTRICITY":0.0001411,"INCLINATION":53.1594,"RA_OF_ASC_NODE":268.6265,"ARG_OF_PERICENTER":98.1466,"MEAN_ANOMALY":261.9695,"EPHEMERIS_TYPE":0,"CLASSIFICATION_TYPE":"U","NORAD_CAT_ID":59725,"ELEMENT_SET_NO":999,"REV_AT_EPOCH":9944,"BSTAR":9.4315e-5,"MEAN_MOTION_DOT":2.435e-5,"MEAN_MOTION_DDOT":0}]
